[
  {
    "COMMENT": "GENERATED VIA SPACETRACK.ORG API",
    "ORIGINATOR": "18 SPCS",
    "NORAD_CAT_ID": "43437",
    "OBJECT_NAME": "SENTINEL 3B",
    "OBJECT_TYPE": "PAYLOAD",
    "CLASSIFICATION_TYPE": "U",
    "INTLDES": "18039A",
    "EPOCH": "2023-05-22 11:05:16",
    "EPOCH_MICROSECONDS": "485504",
    "MEAN_MOTION": "14.26734499",
    "ECCENTRICITY": "0.0000953",
    "INCLINATION": "98.6285",
    "RA_OF_ASC_NODE": "209.9313",
    "ARG_OF_PERICENTER": "86.7125",
    "MEAN_ANOMALY": "273.4165",
    "EPHEMERIS_TYPE": "0",
    "ELEMENT_SET_NO": "999",
    "REV_AT_EPOCH": "26417",
    "BSTAR": "0.00010881",
    "MEAN_MOTION_DOT": "0.0000022",
    "MEAN_MOTION_DDOT": "0",
    "FILE": "3914441",
    "TLE_LINE0": "0 SENTINEL 3B",
    "TLE_LINE1": "1 43437U 18039A   23142.46199636  .00000220  00000-0  10881-3 0  9993",
    "TLE_LINE2": "2 43437  98.6285 209.9313 0000953  86.7125 273.4165 14.26734499264171",
    "OBJECT_ID": "2018-039A",
    "OBJECT_NUMBER": "43437",
    "SEMIMAJOR_AXIS": "7180.804",
    "PERIOD": "100.930",
    "APOGEE": "803.353",
    "PERIGEE": "801.985",
    "DECAYED": "0"
  },
  {
    "COMMENT": "GENERATED VIA SPACETRACK.ORG API",
    "ORIGINATOR": "18 SPCS",
    "NORAD_CAT_ID": "43437",
    "OBJECT_NAME": "SENTINEL 3B",
    "OBJECT_TYPE": "PAYLOAD",
    "CLASSIFICATION_TYPE": "U",
    "INTLDES": "18039A",
    "EPOCH": "2023-05-22 11:05:16",
    "EPOCH_MICROSECONDS": "485504",
    "MEAN_MOTION": "14.26734499",
    "ECCENTRICITY": "0.0000953",
    "INCLINATION": "98.6285",
    "RA_OF_ASC_NODE": "209.9313",
    "ARG_OF_PERICENTER": "86.7125",
    "MEAN_ANOMALY": "273.4165",
    "EPHEMERIS_TYPE": "0",
    "ELEMENT_SET_NO": "999",
    "REV_AT_EPOCH": "26417",
    "BSTAR": "0.00010881",
    "MEAN_MOTION_DOT": "0.0000022",
    "MEAN_MOTION_DDOT": "0",
    "FILE": "3914693",
    "TLE_LINE0": "0 SENTINEL 3B",
    "TLE_LINE1": "1 43437U 18039A   23142.46199636  .00000220  00000-0  10881-3 0  9993",
    "TLE_LINE2": "2 43437  98.6285 209.9313 0000953  86.7125 273.4165 14.26734499264171",
    "OBJECT_ID": "2018-039A",
    "OBJECT_NUMBER": "43437",
    "SEMIMAJOR_AXIS": "7180.804",
    "PERIOD": "100.930",
    "APOGEE": "803.353",
    "PERIGEE": "801.985",
    "DECAYED": "0"
  },
  {
    "COMMENT": "GENERATED VIA SPACETRACK.ORG API",
    "ORIGINATOR": "18 SPCS",
    "NORAD_CAT_ID": "43437",
    "OBJECT_NAME": "SENTINEL 3B",
    "OBJECT_TYPE": "PAYLOAD",
    "CLASSIFICATION_TYPE": "U",
    "INTLDES": "18039A",
    "EPOCH": "2023-05-22 16:08:14",
    "EPOCH_MICROSECONDS": "185824",
    "MEAN_MOTION": "14.26734509",
    "ECCENTRICITY": "0.0000953",
    "INCLINATION": "98.6285",
    "RA_OF_ASC_NODE": "210.1387",
    "ARG_OF_PERICENTER": "86.9847",
    "MEAN_ANOMALY": "273.1442",
    "EPHEMERIS_TYPE": "0",
    "ELEMENT_SET_NO": "999",
    "REV_AT_EPOCH": "26420",
    "BSTAR": "0.00010256",
    "MEAN_MOTION_DOT": "0.00000205",
    "MEAN_MOTION_DDOT": "0",
    "FILE": "3914964",
    "TLE_LINE0": "0 SENTINEL 3B",
    "TLE_LINE1": "1 43437U 18039A   23142.67238641  .00000205  00000-0  10256-3 0  9995",
    "TLE_LINE2": "2 43437  98.6285 210.1387 0000953  86.9847 273.1442 14.26734509264200",
    "OBJECT_ID": "2018-039A",
    "OBJECT_NUMBER": "43437",
    "SEMIMAJOR_AXIS": "7180.804",
    "PERIOD": "100.930",
    "APOGEE": "803.353",
    "PERIGEE": "801.985",
    "DECAYED": "0"
  },
  {
    "COMMENT": "GENERATED VIA SPACETRACK.ORG API",
    "ORIGINATOR": "18 SPCS",
    "NORAD_CAT_ID": "43437",
    "OBJECT_NAME": "SENTINEL 3B",
    "OBJECT_TYPE": "PAYLOAD",
    "CLASSIFICATION_TYPE": "U",
    "INTLDES": "18039A",
    "EPOCH": "2023-05-23 15:42:03",
    "EPOCH_MICROSECONDS": "403584",
    "MEAN_MOTION": "14.26734925",
    "ECCENTRICITY": "0.0000942",
    "INCLINATION": "98.6284",
    "RA_OF_ASC_NODE": "211.1069",
    "ARG_OF_PERICENTER": "87.7565",
    "MEAN_ANOMALY": "272.3723",
    "EPHEMERIS_TYPE": "0",
    "ELEMENT_SET_NO": "999",
    "REV_AT_EPOCH": "26434",
    "BSTAR": "0.000097205",
    "MEAN_MOTION_DOT": "0.00000192",
    "MEAN_MOTION_DDOT": "0",
    "FILE": "3915588",
    "TLE_LINE0": "0 SENTINEL 3B",
    "TLE_LINE1": "1 43437U 18039A   23143.65420606  .00000192  00000-0  97205-4 0  9993",
    "TLE_LINE2": "2 43437  98.6284 211.1069 0000942  87.7565 272.3723 14.26734925264341",
    "OBJECT_ID": "2018-039A",
    "OBJECT_NUMBER": "43437",
    "SEMIMAJOR_AXIS": "7180.802",
    "PERIOD": "100.930",
    "APOGEE": "803.344",
    "PERIGEE": "801.991",
    "DECAYED": "0"
  },
  {
    "COMMENT": "GENERATED VIA SPACETRACK.ORG API",
    "ORIGINATOR": "18 SPCS",
    "NORAD_CAT_ID": "43437",
    "OBJECT_NAME": "SENTINEL 3B",
    "OBJECT_TYPE": "PAYLOAD",
    "CLASSIFICATION_TYPE": "U",
    "INTLDES": "18039A",
    "EPOCH": "2023-05-23 22:26:00",
    "EPOCH_MICROSECONDS": "322944",
    "MEAN_MOTION": "14.26734958",
    "ECCENTRICITY": "0.0000943",
    "INCLINATION": "98.6284",
    "RA_OF_ASC_NODE": "211.3835",
    "ARG_OF_PERICENTER": "88.0848",
    "MEAN_ANOMALY": "272.0441",
    "EPHEMERIS_TYPE": "0",
    "ELEMENT_SET_NO": "999",
    "REV_AT_EPOCH": "26438",
    "BSTAR": "0.000092215",
    "MEAN_MOTION_DOT": "0.00000179",
    "MEAN_MOTION_DDOT": "0",
    "FILE": "3915766",
    "TLE_LINE0": "0 SENTINEL 3B",
    "TLE_LINE1": "1 43437U 18039A   23143.93472596  .00000179  00000-0  92215-4 0  9990",
    "TLE_LINE2": "2 43437  98.6284 211.3835 0000943  88.0848 272.0441 14.26734958264387",
    "OBJECT_ID": "2018-039A",
    "OBJECT_NUMBER": "43437",
    "SEMIMAJOR_AXIS": "7180.802",
    "PERIOD": "100.930",
    "APOGEE": "803.344",
    "PERIGEE": "801.990",
    "DECAYED": "0"
  },
  {
    "COMMENT": "GENERATED VIA SPACETRACK.ORG API",
    "ORIGINATOR": "18 SPCS",
    "NORAD_CAT_ID": "43437",
    "OBJECT_NAME": "SENTINEL 3B",
    "OBJECT_TYPE": "PAYLOAD",
    "CLASSIFICATION_TYPE": "U",
    "INTLDES": "18039A",
    "EPOCH": "2023-05-24 15:15:52",
    "EPOCH_MICROSECONDS": "601472",
    "MEAN_MOTION": "14.26735286",
    "ECCENTRICITY": "0.0000938",
    "INCLINATION": "98.6283",
    "RA_OF_ASC_NODE": "212.0751",
    "ARG_OF_PERICENTER": "88.5903",
    "MEAN_ANOMALY": "271.5385",
    "EPHEMERIS_TYPE": "0",
    "ELEMENT_SET_NO": "999",
    "REV_AT_EPOCH": "26448",
    "BSTAR": "0.000090173",
    "MEAN_MOTION_DOT": "0.00000175",
    "MEAN_MOTION_DDOT": "0",
    "FILE": "3916549",
    "TLE_LINE0": "0 SENTINEL 3B",
    "TLE_LINE1": "1 43437U 18039A   23144.63602548  .00000175  00000-0  90173-4 0  9997",
    "TLE_LINE2": "2 43437  98.6283 212.0751 0000938  88.5903 271.5385 14.26735286264489",
    "OBJECT_ID": "2018-039A",
    "OBJECT_NUMBER": "43437",
    "SEMIMAJOR_AXIS": "7180.801",
    "PERIOD": "100.930",
    "APOGEE": "803.340",
    "PERIGEE": "801.993",
    "DECAYED": "0"
  },
  {
    "COMMENT": "GENERATED VIA SPACETRACK.ORG API",
    "ORIGINATOR": "18 SPCS",
    "NORAD_CAT_ID": "43437",
    "OBJECT_NAME": "SENTINEL 3B",
    "OBJECT_TYPE": "PAYLOAD",
    "CLASSIFICATION_TYPE": "U",
    "INTLDES": "18039A",
    "EPOCH": "2023-05-25 18:11:40",
    "EPOCH_MICROSECONDS": "214976",
    "MEAN_MOTION": "14.26735767",
    "ECCENTRICITY": "0.0000926",
    "INCLINATION": "98.6283",
    "RA_OF_ASC_NODE": "213.1815",
    "ARG_OF_PERICENTER": "89.5912",
    "MEAN_ANOMALY": "270.5375",
    "EPHEMERIS_TYPE": "0",
    "ELEMENT_SET_NO": "999",
    "REV_AT_EPOCH": "26464",
    "BSTAR": "0.000086762",
    "MEAN_MOTION_DOT": "0.00000166",
    "MEAN_MOTION_DDOT": "0",
    "FILE": "3916803",
    "TLE_LINE0": "0 SENTINEL 3B",
    "TLE_LINE1": "1 43437U 18039A   23145.75810434  .00000166  00000-0  86762-4 0  9995",
    "TLE_LINE2": "2 43437  98.6283 213.1815 0000926  89.5912 270.5375 14.26735767264640",
    "OBJECT_ID": "2018-039A",
    "OBJECT_NUMBER": "43437",
    "SEMIMAJOR_AXIS": "7180.800",
    "PERIOD": "100.930",
    "APOGEE": "803.330",
    "PERIGEE": "802.000",
    "DECAYED": "0"
  },
  {
    "COMMENT": "GENERATED VIA SPACETRACK.ORG API",
    "ORIGINATOR": "18 SPCS",
    "NORAD_CAT_ID": "43437",
    "OBJECT_NAME": "SENTINEL 3B",
    "OBJECT_TYPE": "PAYLOAD",
    "CLASSIFICATION_TYPE": "U",
    "INTLDES": "18039A",
    "EPOCH": "2023-05-25 18:11:40",
    "EPOCH_MICROSECONDS": "214976",
    "MEAN_MOTION": "14.26735767",
    "ECCENTRICITY": "0.0000926",
    "INCLINATION": "98.6283",
    "RA_OF_ASC_NODE": "213.1815",
    "ARG_OF_PERICENTER": "89.5912",
    "MEAN_ANOMALY": "270.5375",
    "EPHEMERIS_TYPE": "0",
    "ELEMENT_SET_NO": "999",
    "REV_AT_EPOCH": "26464",
    "BSTAR": "0.000086762",
    "MEAN_MOTION_DOT": "0.00000166",
    "MEAN_MOTION_DDOT": "0",
    "FILE": "3917122",
    "TLE_LINE0": "0 SENTINEL 3B",
    "TLE_LINE1": "1 43437U 18039A   23145.75810434  .00000166  00000-0  86762-4 0  9995",
    "TLE_LINE2": "2 43437  98.6283 213.1815 0000926  89.5912 270.5375 14.26735767264640",
    "OBJECT_ID": "2018-039A",
    "OBJECT_NUMBER": "43437",
    "SEMIMAJOR_AXIS": "7180.800",
    "PERIOD": "100.930",
    "APOGEE": "803.330",
    "PERIGEE": "802.000",
    "DECAYED": "0"
  }
]